{
    "links": {
        "self": "http://www.neowsapp.com/rest/v1/neo/3799831?api_key=iIulBulltgU6a56xZRHN4H3l9WmuAYTsLGpBGhQ2"
    },
    "id": "3799831",
    "neo_reference_id": "3799831",
    "name": "(2018 EV1)",
    "designation": "2018 EV1",
    "nasa_jpl_url": "http://ssd.jpl.nasa.gov/sbdb.cgi?sstr=3799831",
    "absolute_magnitude_h": 25.4,
    "estimated_diameter": {
        "kilometers": {
            "estimated_diameter_min": 0.022108281,
            "estimated_diameter_max": 0.0494356193
        },
        "meters": {
            "estimated_diameter_min": 22.1082810359,
            "estimated_diameter_max": 49.435619262
        },
        "miles": {
            "estimated_diameter_min": 0.0137374447,
            "estimated_diameter_max": 0.0307178602
        },
        "feet": {
            "estimated_diameter_min": 72.5337327539,
            "estimated_diameter_max": 162.1903570994
        }
    },
    "is_potentially_hazardous_asteroid": false,
    "close_approach_data": [
        {
            "close_approach_date": "2018-03-22",
            "close_approach_date_full": "2018-Mar-22 09:45",
            "epoch_date_close_approach": 1521711900000,
            "relative_velocity": {
                "kilometers_per_second": "11.1764763221",
                "kilometers_per_hour": "40235.3147596291",
                "miles_per_hour": "25000.6598849484"
            },
            "miss_distance": {
                "astronomical": "0.0197354006",
                "lunar": "7.6770708334",
                "kilometers": "2952373.893356722",
                "miles": "1834520.0695058836"
            },
            "orbiting_body": "Earth"
        }
    ],
    "orbital_data": {
        "orbit_id": "4",
        "orbit_determination_date": "2018-03-20 06:49:45",
        "first_observation_date": "2018-03-08",
        "last_observation_date": "2018-03-20",
        "data_arc_in_days": 12,
        "observations_used": 26,
        "orbit_uncertainty": "8",
        "minimum_orbit_intersection": ".00473776",
        "jupiter_tisserand_invariant": "3.923",
        "epoch_osculation": "2458187.5",
        "eccentricity": ".5126684074005813",
        "semi_major_axis": "1.783228174182404",
        "inclination": ".8364429627555481",
        "ascending_node_longitude": "18.03732271451108",
        "orbital_period": "869.7787693165826",
        "perihelion_distance": ".8690234260924644",
        "perihelion_argument": "212.2981743816942",
        "aphelion_distance": "2.697432922272343",
        "perihelion_time": "2458236.319116059625",
        "mean_anomaly": "339.7938482733095",
        "mean_motion": ".4138983528913511",
        "equinox": "J2000",
        "orbit_class": {
            "orbit_class_type": "APO",
            "orbit_class_description": "Near-Earth asteroid orbits which cross the Earth’s orbit similar to that of 1862 Apollo",
            "orbit_class_range": "a (semi-major axis) > 1.0 AU; q (perihelion) < 1.017 AU"
        }
    },
    "is_sentry_object": false
}